IRIDIUM 8 [+]           
1 24792U 97020A   17128.53825647 -.00000029  00000-0 -17481-4 0  9999
2 24792  86.3943 335.2758 0002005  84.7517 275.3908 14.34222239 47288
IRIDIUM 7 [+]           
1 24793U 97020B   17128.95052011  .00000071  00000-0  18448-4 0  9992
2 24793  86.3951 335.3848 0002127  88.1059 272.0380 14.34223886 47347
IRIDIUM 6 [+]           
1 24794U 97020C   17128.94409964  .00000066  00000-0  16636-4 0  9996
2 24794  86.3949 335.3188 0002183  88.3077 271.8368 14.34222653 47339
IRIDIUM 5 [+]           
1 24795U 97020D   17128.93782839  .00000047  00000-0  98532-5 0  9996
2 24795  86.3941 335.3371 0002221  86.1305 274.0144 14.34223302 47619
IRIDIUM 4 [-]           
1 24796U 97020E   17128.96954503  .00000105  00000-0  30020-4 0  9991
2 24796  86.3942 334.2803 0002108  89.5464  22.9370 14.35151338 47640
IRIDIUM 914 [-]         
1 24836U 97030A   17128.68946895  .00000091  00000-0  23269-4 0  9992
2 24836  86.3944 351.2616 0001024 134.9484 225.1797 14.38755361181166
IRIDIUM 12 [+]          
1 24837U 97030B   17128.75757448  .00000141  00000-0  43437-4 0  9990
2 24837  86.3983   6.5838 0002104  84.5399 342.1616 14.34216536 41012
IRIDIUM 10 [+]          
1 24839U 97030D   17128.74467113  .00000140  00000-0  43060-4 0  9999
2 24839  86.3982   6.5691 0002089  84.9785 340.5856 14.34216323 41286
IRIDIUM 13 [+]          
1 24840U 97030E   17128.75102012  .00000146  00000-0  45103-4 0  9992
2 24840  86.3984   6.7058 0002043  80.7291 279.4136 14.34216300 41292
IRIDIUM 16 [-]          
1 24841U 97030F   17128.71070879  .00000094  00000-0  25101-4 0  9992
2 24841  86.4063   6.5562 0004287  70.0845 290.0814 14.36706854 41651
IRIDIUM 911 [-]         
1 24842U 97030G   17128.70563010  .00000146  00000-0  36119-4 0  9995
2 24842  86.4490   7.3656 0013019 215.5762 144.4573 14.44954141 47255
IRIDIUM 15 [+]          
1 24869U 97034A   17128.80072687  .00000180  00000-0  52324-4 0  9998
2 24869  86.4224  38.5596 0002698  92.5018 267.6489 14.38635262 38006
IRIDIUM 17 [-]          
1 24870U 97034B   17128.79233954  .00000080  00000-0  20671-4 0  9993
2 24870  86.4002  36.6844 0002557  42.5104 317.6290 14.35754354 38526
IRIDIUM 920 [-]         
1 24871U 97034C   17128.74968320  .00000074  00000-0  17421-4 0  9993
2 24871  86.4012  22.9854 0013789 106.6094 253.6620 14.39467787 40418
IRIDIUM 18 [+]          
1 24872U 97034D   17128.84313078  .00000164  00000-0  51580-4 0  9993
2 24872  86.4001  38.5233 0002323  84.2822 275.8639 14.34228818 38231
IRIDIUM 921 [-]         
1 24873U 97034E   17128.91165660  .00000257  00000-0  13149-4 0  9996
2 24873  86.3925  84.5488 0008803 143.6796 216.5041 15.11286270 81888
IRIDIUM 26 [-]          
1 24903U 97043A   17128.92928307  .00000072  00000-0  18204-4 0  9998
2 24903  86.3950 271.2147 0002344  92.4062  20.3436 14.35254308 31862
IRIDIUM 25 [+]          
1 24904U 97043B   17128.93104329  .00000068  00000-0  17059-4 0  9992
2 24904  86.3940 271.8215 0002357  95.4897 264.6568 14.34215055 31995
IRIDIUM 46 [+]          
1 24905U 97043C   17128.94378308  .00000069  00000-0  17656-4 0  9998
2 24905  86.3954 271.7816 0002705  98.8227 261.3275 14.34238618 32202
IRIDIUM 23 [+]          
1 24906U 97043D   17128.96005039  .00000062  00000-0  14925-4 0  9998
2 24906  86.3954 271.8527 0002318  98.5175  18.6215 14.34215160 31935
IRIDIUM 22 [+]          
1 24907U 97043E   17128.91201184  .00000074  00000-0  19428-4 0  9999
2 24907  86.3950 272.4942 0002239  95.8600 264.2851 14.34216777 32217
DUMMY MASS 1 [-]        
1 24925U 97048A   17128.83314443  .00000061  00000-0  37964-5 0  9990
2 24925  86.3373  61.5582 0007347 162.5355 197.6123 14.85131284 65501
DUMMY MASS 2 [-]        
1 24926U 97048B   17128.86548581  .00000053  00000-0  28826-5 0  9994
2 24926  86.3372  62.6527 0007804 171.5009 188.6349 14.84899317 65356
IRIDIUM 29 [-]          
1 24944U 97051A   17128.56422683  .00000109  00000-0  31449-4 0  9995
2 24944  86.3925 303.4506 0001825  90.5326 269.6080 14.34624437 28537
IRIDIUM 32 [+]          
1 24945U 97051B   17128.87099893 -.00000044  00000-0 -22611-4 0  9994
2 24945  86.3919 303.5357 0002059  90.7335 269.4096 14.34215268 28788
IRIDIUM 33 [-]          
1 24946U 97051C   17128.88528543  .00000086  00000-0  24074-4 0  9994
2 24946  86.3840 303.1829 0008586  26.0209 334.1417 14.33550487 28393
IRIDIUM 28 [-]          
1 24948U 97051E   17128.88418405  .00000095  00000-0  26182-4 0  9993
2 24948  86.3929 302.5710 0002459  86.4620 273.6857 14.35547266 28876
IRIDIUM 30 [+]          
1 24949U 97051F   17128.86485925 -.00000200  00000-0 -78554-4 0  9993
2 24949  86.3923 303.6602 0002492  76.9349 283.2125 14.34228882 28551
IRIDIUM 31 [+]          
1 24950U 97051G   17128.92807048  .00000022  00000-0  93309-6 0  9993
2 24950  86.3922 303.6055 0002015  90.9388 269.2039 14.34215954 28862
IRIDIUM 19 [+]          
1 24965U 97056A   17128.63338733 -.00000026  00000-0 -16261-4 0  9998
2 24965  86.3944 335.2473 0002027  84.0331 276.1096 14.34222596 26882
IRIDIUM 35 [+]          
1 24966U 97056B   17128.64608248 -.00000023  00000-0 -15100-4 0  9999
2 24966  86.3943 335.2362 0002047  84.6476 275.4953 14.34222249 26583
IRIDIUM 36 [-]          
1 24967U 97056C   17128.61166873  .00000102  00000-0  28441-4 0  9998
2 24967  86.3957 334.3389 0002035  86.0068 274.1361 14.35600200 27182
IRIDIUM 37 [+]          
1 24968U 97056D   17128.62070757 -.00000019  00000-0 -13940-4 0  9992
2 24968  86.3945 335.4321 0002009  84.6378 275.5047 14.34222426 26653
IRIDIUM 34 [+]          
1 24969U 97056E   17128.63972848 -.00000018  00000-0 -13550-4 0  9992
2 24969  86.3945 335.3609 0002020  83.1980 276.9445 14.34222810 26876
IRIDIUM 43 [+]          
1 25039U 97069A   17128.83673147  .00000196  00000-0  62920-4 0  9997
2 25039  86.4022  38.4675 0002118  79.5140 280.6294 14.34224261 20679
IRIDIUM 41 [+]          
1 25040U 97069B   17128.83054918  .00000170  00000-0  53641-4 0  9990
2 25040  86.4001  38.4098 0002378  84.6548 275.4919 14.34211203 20379
IRIDIUM 40 [-]          
1 25041U 97069C   17128.73203541  .00045273 -95327-6  43718-3 0  9997
2 25041  86.3947  36.6685 0297854  69.1115 294.1744 15.26648966 20920
IRIDIUM 39 [B]          
1 25042U 97069D   17128.78400152  .00000123  00000-0  28656-4 0  9997
2 25042  86.3959  36.0241 0021255  84.2415 276.1210 14.46151052 20763
IRIDIUM 38 [-]          
1 25043U 97069E   17128.92081454  .00000092  00000-0  24721-4 0  9998
2 25043  86.4001  35.6012 0003436  71.9473 288.2098 14.36026434 20832
IRIDIUM 42 [-]          
1 25077U 97077A   17128.84801676  .00000114  00000-0  33386-4 0  9993
2 25077  86.4004  38.3571 0002434  84.6267 275.5207 14.34540457 16549
IRIDIUM 44 [-]          
1 25078U 97077B   17128.76380962  .00000119  00000-0  32590-4 0  9996
2 25078  86.4002  28.0690 0003591  65.3386 294.8186 14.38118943 17938
IRIDIUM 45 [+]          
1 25104U 97082A   17128.85195890 -.00000042  00000-0 -21963-4 0  9995
2 25104  86.3918 303.6692 0003063  82.7001 277.4543 14.34215621 14475
IRIDIUM 24 [-]          
1 25105U 97082B   17128.84759686  .00000091  00000-0  22409-4 0  9992
2 25105  86.3934 252.0513 0013779 111.5254 248.7415 14.39852227 16946
IRIDIUM 47 [+]          
1 25106U 97082C   17128.88031456  .00000075  00000-0  19749-4 0  9990
2 25106  86.3938 271.7151 0002305  98.8356 261.3101 14.34214923 14446
IRIDIUM 49 [+]          
1 25108U 97082E   17128.55305253  .00000069  00000-0  17557-4 0  9993
2 25108  86.3940 271.9536 0002290  96.4835 309.5759 14.34214834 14433
IRIDIUM 52 [+]          
1 25169U 98010A   17128.71294987  .00000142  00000-0  43654-4 0  9990
2 25169  86.3988   6.8974 0002098  84.0972 276.0463 14.34217452  5848
IRIDIUM 56 [+]          
1 25170U 98010B   17128.70661830  .00000205  00000-0  66112-4 0  9990
2 25170  86.3997   7.0075 0002330  84.3995 275.7466 14.34218680  6026
IRIDIUM 54 [+]          
1 25171U 98010C   17128.73832919  .00000141  00000-0  43380-4 0  9993
2 25171  86.3988   6.9073 0002079  84.4527 275.6906 14.34216878  6299
IRIDIUM 50 [+]          
1 25172U 98010D   17128.70027111  .00000138  00000-0  42252-4 0  9994
2 25172  86.3987   6.8798 0002026  86.4000 273.7427 14.34217036  5824
IRIDIUM 53 [+]          
1 25173U 98010E   17128.92862462  .00000133  00000-0  40444-4 0  9991
2 25173  86.3987   6.7904 0002097  84.0302 276.1133 14.34213809  5870
IRIDIUM 51 [S]          
1 25262U 98018A   17128.94415411  .00000100  00000-0  28548-4 0  9993
2 25262  86.3951 335.4412 0001974  96.2817 263.8603 14.34220048  5299
IRIDIUM 61 [+]          
1 25263U 98018B   17128.62704141 -.00000038  00000-0 -20725-4 0  9991
2 25263  86.3945 335.3947 0002056  84.7912 275.3518 14.34219345   965
IRIDIUM 55 [+]          
1 25272U 98019A   17128.83927579 -.00000033  00000-0 -18983-4 0  9995
2 25272  86.3919 303.4573 0002090  90.0960 270.0476 14.34214539   211
IRIDIUM 57 [-]          
1 25273U 98019B   17128.94719069  .00000087  00000-0  24012-4 0  9998
2 25273  86.3929 303.7198 0002070  91.6231 268.5202 14.34267215   224
IRIDIUM 58 [+]          
1 25274U 98019C   17128.89000473 -.00000042  00000-0 -22054-4 0  9992
2 25274  86.3926 303.9389 0002125  91.6830 268.4609 14.34216107   226
IRIDIUM 59 [+]          
1 25275U 98019D   17128.54751256 -.00000041  00000-0 -21845-4 0  9993
2 25275  86.3920 303.9372 0001978  91.2851 268.8572 14.34215783   465
IRIDIUM 60 [+]          
1 25276U 98019E   17128.55389001 -.00000040  00000-0 -21295-4 0  9998
2 25276  86.3918 303.5556 0002080  88.9447 271.1987 14.34214091   178
IRIDIUM 62 [+]          
1 25285U 98021A   17128.93402163  .00000108  00000-0  31671-4 0  9990
2 25285  86.3984 240.2907 0002340  99.5572 260.5889 14.34217881999398
IRIDIUM 63 [-]          
1 25286U 98021B   17128.89929819  .00000066  00000-0  16344-4 0  9991
2 25286  86.4015 240.7130 0002070  99.5540   7.4313 14.34656890999132
